CCSDS_OMM_VERS = 2.0
CREATION_DATE  = 
ORIGINATOR     = 

OBJECT_NAME    = SL-3 R/B
OBJECT_ID      = 1988-032B
CENTER_NAME    = EARTH
REF_FRAME      = TEME
TIME_SYSTEM    = UTC
MEAN_ELEMENT_THEORY = SGP/SGP4

EPOCH          = 2026-04-02T21:24:34.296768
MEAN_MOTION    = 15.20188866
ECCENTRICITY   = .0026869
INCLINATION    = 97.5219
RA_OF_ASC_NODE = 76.0668
ARG_OF_PERICENTER = 146.2294
MEAN_ANOMALY   = 214.0659

EPHEMERIS_TYPE = 0
CLASSIFICATION_TYPE = U
NORAD_CAT_ID   = 19046
ELEMENT_SET_NO = 999
REV_AT_EPOCH   = 5578
BSTAR          = .43436E-3
MEAN_MOTION_DOT = .9431E-4
MEAN_MOTION_DDOT = 0

CCSDS_OMM_VERS = 2.0
CREATION_DATE  = 
ORIGINATOR     = 

OBJECT_NAME    = SL-16 R/B
OBJECT_ID      = 1988-039B
CENTER_NAME    = EARTH
REF_FRAME      = TEME
TIME_SYSTEM    = UTC
MEAN_ELEMENT_THEORY = SGP/SGP4

EPOCH          = 2026-04-02T17:25:43.026816
MEAN_MOTION    = 14.19620351
ECCENTRICITY   = .0023779
INCLINATION    = 71.0174
RA_OF_ASC_NODE = 17.7220
ARG_OF_PERICENTER = 300.0272
MEAN_ANOMALY   = 59.8494

EPHEMERIS_TYPE = 0
CLASSIFICATION_TYPE = U
NORAD_CAT_ID   = 19120
ELEMENT_SET_NO = 999
REV_AT_EPOCH   = 96179
BSTAR          = -.53748E-5
MEAN_MOTION_DOT = -.6E-6
MEAN_MOTION_DDOT = 0

CCSDS_OMM_VERS = 2.0
CREATION_DATE  = 
ORIGINATOR     = 

OBJECT_NAME    = COSMOS 1953
OBJECT_ID      = 1988-050A
CENTER_NAME    = EARTH
REF_FRAME      = TEME
TIME_SYSTEM    = UTC
MEAN_ELEMENT_THEORY = SGP/SGP4

EPOCH          = 2026-04-02T20:16:05.738304
MEAN_MOTION    = 15.28906163
ECCENTRICITY   = .0011985
INCLINATION    = 82.5066
RA_OF_ASC_NODE = 133.9460
ARG_OF_PERICENTER = 47.2190
MEAN_ANOMALY   = 313.0055

EPHEMERIS_TYPE = 0
CLASSIFICATION_TYPE = U
NORAD_CAT_ID   = 19210
ELEMENT_SET_NO = 999
REV_AT_EPOCH   = 4147
BSTAR          = .33318E-3
MEAN_MOTION_DOT = .9407E-4
MEAN_MOTION_DDOT = 0

CCSDS_OMM_VERS = 2.0
CREATION_DATE  = 
ORIGINATOR     = 

OBJECT_NAME    = SL-8 R/B
OBJECT_ID      = 1988-053B
CENTER_NAME    = EARTH
REF_FRAME      = TEME
TIME_SYSTEM    = UTC
MEAN_ELEMENT_THEORY = SGP/SGP4

EPOCH          = 2026-04-02T15:56:12.257664
MEAN_MOTION    = 14.38932407
ECCENTRICITY   = .00214068
INCLINATION    = 74.0465
RA_OF_ASC_NODE = 68.2700
ARG_OF_PERICENTER = 244.3423
MEAN_ANOMALY   = 288.6433

EPHEMERIS_TYPE = 0
CLASSIFICATION_TYPE = U
NORAD_CAT_ID   = 19257
ELEMENT_SET_NO = 999
REV_AT_EPOCH   = 98004
BSTAR          = .10394045E-3
MEAN_MOTION_DOT = .295E-5
MEAN_MOTION_DDOT = 0

CCSDS_OMM_VERS = 2.0
CREATION_DATE  = 
ORIGINATOR     = 

OBJECT_NAME    = COSMOS 1975
OBJECT_ID      = 1988-093A
CENTER_NAME    = EARTH
REF_FRAME      = TEME
TIME_SYSTEM    = UTC
MEAN_ELEMENT_THEORY = SGP/SGP4

EPOCH          = 2026-04-02T10:15:43.467552
MEAN_MOTION    = 15.28407510
ECCENTRICITY   = .00134162
INCLINATION    = 82.5155
RA_OF_ASC_NODE = 93.8435
ARG_OF_PERICENTER = 88.5934
MEAN_ANOMALY   = 271.6843

EPHEMERIS_TYPE = 0
CLASSIFICATION_TYPE = U
NORAD_CAT_ID   = 19573
ELEMENT_SET_NO = 999
REV_AT_EPOCH   = 2303
BSTAR          = .347107E-3
MEAN_MOTION_DOT = .9657E-4
MEAN_MOTION_DDOT = 0

CCSDS_OMM_VERS = 2.0
CREATION_DATE  = 
ORIGINATOR     = 

OBJECT_NAME    = SL-14 R/B
OBJECT_ID      = 1988-093B
CENTER_NAME    = EARTH
REF_FRAME      = TEME
TIME_SYSTEM    = UTC
MEAN_ELEMENT_THEORY = SGP/SGP4

EPOCH          = 2026-04-02T18:24:15.141024
MEAN_MOTION    = 14.85685904
ECCENTRICITY   = .0019697
INCLINATION    = 82.5344
RA_OF_ASC_NODE = 19.4462
ARG_OF_PERICENTER = 322.1685
MEAN_ANOMALY   = 60.5505

EPHEMERIS_TYPE = 0
CLASSIFICATION_TYPE = U
NORAD_CAT_ID   = 19574
ELEMENT_SET_NO = 999
REV_AT_EPOCH   = 459
BSTAR          = .73382E-4
MEAN_MOTION_DOT = .662E-5
MEAN_MOTION_DDOT = 0

CCSDS_OMM_VERS = 2.0
CREATION_DATE  = 
ORIGINATOR     = 

OBJECT_NAME    = SL-16 R/B
OBJECT_ID      = 1988-102B
CENTER_NAME    = EARTH
REF_FRAME      = TEME
TIME_SYSTEM    = UTC
MEAN_ELEMENT_THEORY = SGP/SGP4

EPOCH          = 2026-04-02T10:13:53.689440
MEAN_MOTION    = 14.16154222
ECCENTRICITY   = .00153066
INCLINATION    = 70.9970
RA_OF_ASC_NODE = 101.5515
ARG_OF_PERICENTER = 326.7216
MEAN_ANOMALY   = 33.2943

EPHEMERIS_TYPE = 0
CLASSIFICATION_TYPE = U
NORAD_CAT_ID   = 19650
ELEMENT_SET_NO = 999
REV_AT_EPOCH   = 93025
BSTAR          = .11139854E-3
MEAN_MOTION_DOT = .173E-5
MEAN_MOTION_DDOT = 0

CCSDS_OMM_VERS = 2.0
CREATION_DATE  = 
ORIGINATOR     = 

OBJECT_NAME    = INTERCOSMOS 24
OBJECT_ID      = 1989-080A
CENTER_NAME    = EARTH
REF_FRAME      = TEME
TIME_SYSTEM    = UTC
MEAN_ELEMENT_THEORY = SGP/SGP4

EPOCH          = 2026-04-02T17:04:57.601056
MEAN_MOTION    = 12.59587766
ECCENTRICITY   = .1186972
INCLINATION    = 82.6015
RA_OF_ASC_NODE = 88.7562
ARG_OF_PERICENTER = 237.0150
MEAN_ANOMALY   = 111.1392

EPHEMERIS_TYPE = 0
CLASSIFICATION_TYPE = U
NORAD_CAT_ID   = 20261
ELEMENT_SET_NO = 999
REV_AT_EPOCH   = 66982
BSTAR          = .14277E-3
MEAN_MOTION_DOT = .485E-5
MEAN_MOTION_DDOT = 0

CCSDS_OMM_VERS = 2.0
CREATION_DATE  = 
ORIGINATOR     = 

OBJECT_NAME    = SL-14 R/B
OBJECT_ID      = 1989-080C
CENTER_NAME    = EARTH
REF_FRAME      = TEME
TIME_SYSTEM    = UTC
MEAN_ELEMENT_THEORY = SGP/SGP4

EPOCH          = 2026-04-02T11:32:50.292096
MEAN_MOTION    = 12.50516702
ECCENTRICITY   = .12308931
INCLINATION    = 82.5948
RA_OF_ASC_NODE = 157.9198
ARG_OF_PERICENTER = 130.3962
MEAN_ANOMALY   = 241.1316

EPHEMERIS_TYPE = 0
CLASSIFICATION_TYPE = U
NORAD_CAT_ID   = 20262
ELEMENT_SET_NO = 999
REV_AT_EPOCH   = 66312
BSTAR          = .14912295E-3
MEAN_MOTION_DOT = .525E-5
MEAN_MOTION_DDOT = 0

CCSDS_OMM_VERS = 2.0
CREATION_DATE  = 
ORIGINATOR     = 

OBJECT_NAME    = DELTA 1 R/B
OBJECT_ID      = 1989-089B
CENTER_NAME    = EARTH
REF_FRAME      = TEME
TIME_SYSTEM    = UTC
MEAN_ELEMENT_THEORY = SGP/SGP4

EPOCH          = 2026-04-02T19:56:50.031168
MEAN_MOTION    = 14.50684221
ECCENTRICITY   = .0070238
INCLINATION    = 97.0686
RA_OF_ASC_NODE = 296.4264
ARG_OF_PERICENTER = 47.1658
MEAN_ANOMALY   = 313.5413

EPHEMERIS_TYPE = 0
CLASSIFICATION_TYPE = U
NORAD_CAT_ID   = 20323
ELEMENT_SET_NO = 999
REV_AT_EPOCH   = 89923
BSTAR          = .13997E-3
MEAN_MOTION_DOT = .532E-5
MEAN_MOTION_DDOT = 0

CCSDS_OMM_VERS = 2.0
CREATION_DATE  = 
ORIGINATOR     = 

OBJECT_NAME    = ARIANE 40 R/B
OBJECT_ID      = 1990-005H
CENTER_NAME    = EARTH
REF_FRAME      = TEME
TIME_SYSTEM    = UTC
MEAN_ELEMENT_THEORY = SGP/SGP4

EPOCH          = 2026-04-02T10:34:09.094656
MEAN_MOTION    = 14.39886765
ECCENTRICITY   = .00111851
INCLINATION    = 98.3034
RA_OF_ASC_NODE = 152.3883
ARG_OF_PERICENTER = 129.8458
MEAN_ANOMALY   = 230.3717

EPHEMERIS_TYPE = 0
CLASSIFICATION_TYPE = U
NORAD_CAT_ID   = 20443
ELEMENT_SET_NO = 999
REV_AT_EPOCH   = 89622
BSTAR          = .14072581E-3
MEAN_MOTION_DOT = .4E-5
MEAN_MOTION_DDOT = 0

CCSDS_OMM_VERS = 2.0
CREATION_DATE  = 
ORIGINATOR     = 

OBJECT_NAME    = DELTA 2 R/B(1)
OBJECT_ID      = 1990-008B
CENTER_NAME    = EARTH
REF_FRAME      = TEME
TIME_SYSTEM    = UTC
MEAN_ELEMENT_THEORY = SGP/SGP4

EPOCH          = 2026-04-02T20:38:18.651840
MEAN_MOTION    = 15.59341362
ECCENTRICITY   = .0076558
INCLINATION    = 35.6043
RA_OF_ASC_NODE = 15.8498
ARG_OF_PERICENTER = 126.0755
MEAN_ANOMALY   = 234.7102

EPHEMERIS_TYPE = 0
CLASSIFICATION_TYPE = U
NORAD_CAT_ID   = 20453
ELEMENT_SET_NO = 999
REV_AT_EPOCH   = 92990
BSTAR          = .11929E-2
MEAN_MOTION_DOT = .113516E-2
MEAN_MOTION_DDOT = 0

